IONOSFERA-M 4           
1 64877U 25155B   26196.22489970 -.00000002  00000+0  18510-4 0  9996
2 64877  98.6039 157.3437 0001829  99.7899 260.3485 14.21493232 50385
MICROCARB               
1 64899U 25156A   26196.14285590  .00000259  00000+0  48195-4 0  9999
2 64899  98.0075 272.8457 0017624 170.9723 189.1805 14.72885088 52089
CO3D 3                  
1 64900U 25156B   26196.16231723  .00002378  00000+0  11296-3 0  9998
2 64900  97.4337 274.4531 0001772  94.5951 265.5486 15.20191777 53789
CO3D 4                  
1 64901U 25156C   26196.16246806  .00000662  00000+0  33693-4 0  9997
2 64901  97.4336 274.4533 0001645 154.1467 205.9851 15.20209632 53789
CO3D 2                  
1 64902U 25156D   26196.19495134  .00002157  00000+0  10274-3 0  9991
2 64902  97.4337 274.3840 0001239  89.0953 271.0424 15.20201374 53781
CO3D 1                  
1 64903U 25156E   26196.19510514  .00002210  00000+0  10519-3 0  9994
2 64903  97.4336 274.3842 0001290 100.5724 259.5657 15.20201265 53783
PRSC-S1                 
1 65055U 25164A   26196.17321868  .00002205  00000+0  15789-3 0  9990
2 65055  41.1299 130.1691 0006697 197.8766 162.1813 15.06634818 52654
SENTINEL-6B             
1 66514U 25264A   26196.11509178 -.00000042  00000+0  81914-4 0  9990
2 66514  66.0413  77.1731 0007845 268.7276  91.2840 12.80930155 30744
CAS500-3                
1 66655U 25274F   26195.77942952  .00000579  00000+0  68258-4 0  9999
2 66655  97.7437 123.2031 0006266  39.4856 320.6817 14.88383181 34250
CSG-3                   
1 67304U 26001A   26194.52815792  .00000135  00000+0  23485-4 0  9994
2 67304  97.8894  17.7492 0001518  93.3222 266.8165 14.82151371 28369
PRSC-E03                
1 68835U 26092A   26196.22135123  .00001223  00000+0  87778-4 0  9990
2 68835  38.0012 284.3524 0004912 251.4006 108.6222 15.06809205 12187
CAS500-2                
1 69013U 26100AK  26196.18251580  .00003346  00000+0  15437-3 0  9990
2 69013  97.3868  93.5066 0007810 292.1380  67.9026 15.20902116 11067
