OBJECT_NAME,OBJECT_ID,EPOCH,MEAN_MOTION,ECCENTRICITY,INCLINATION,RA_OF_ASC_NODE,ARG_OF_PERICENTER,MEAN_ANOMALY,EPHEMERIS_TYPE,CLASSIFICATION_TYPE,NORAD_CAT_ID,ELEMENT_SET_NO,REV_AT_EPOCH,BSTAR,MEAN_MOTION_DOT,MEAN_MOTION_DDOT
IONOSFERA-M 4,2025-155B,2026-07-15T05:23:51.334080,14.21493232,.0001829,98.6039,157.3437,99.7899,260.3485,0,U,64877,999,5038,.1851E-4,-.2E-7,0
MICROCARB,2025-156A,2026-07-15T03:25:42.749760,14.72885088,.0017624,98.0075,272.8457,170.9723,189.1805,0,U,64899,999,5208,.48195E-4,.259E-5,0
CO3D 3,2025-156B,2026-07-15T03:53:44.208672,15.20191777,.0001772,97.4337,274.4531,94.5951,265.5486,0,U,64900,999,5378,.11296E-3,.2378E-4,0
CO3D 4,2025-156C,2026-07-15T03:53:57.240384,15.20209632,.0001645,97.4336,274.4533,154.1467,205.9851,0,U,64901,999,5378,.33693E-4,.662E-5,0
CO3D 2,2025-156D,2026-07-15T04:40:43.795776,15.20201374,.0001239,97.4337,274.3840,89.0953,271.0424,0,U,64902,999,5378,.10274E-3,.2157E-4,0
CO3D 1,2025-156E,2026-07-15T04:40:57.084096,15.20201265,.000129,97.4336,274.3842,100.5724,259.5657,0,U,64903,999,5378,.10519E-3,.221E-4,0
PRSC-S1,2025-164A,2026-07-15T04:09:26.093952,15.06634818,.0006697,41.1299,130.1691,197.8766,162.1813,0,U,65055,999,5265,.15789E-3,.2205E-4,0
SENTINEL-6B,2025-264A,2026-07-15T02:45:43.929792,12.80930155,.0007845,66.0413,77.1731,268.7276,91.2840,0,U,66514,999,3074,.81914E-4,-.42E-6,0
CAS500-3,2025-274F,2026-07-14T18:42:22.710528,14.88383181,.0006266,97.7437,123.2031,39.4856,320.6817,0,U,66655,999,3425,.68257762E-4,.579E-5,0
CSG-3,2026-001A,2026-07-13T12:40:32.844288,14.82151371,.00015181,97.8894,17.7492,93.3222,266.8165,0,U,67304,999,2836,.2348529E-4,.135E-5,0
PRSC-E03,2026-092A,2026-07-15T05:18:44.746272,15.06809205,.0004912,38.0012,284.3524,251.4006,108.6222,0,U,68835,999,1218,.87778E-4,.1223E-4,0
CAS500-2,2026-100AK,2026-07-15T04:22:49.365120,15.20902116,.000781,97.3868,93.5066,292.1380,67.9026,0,U,69013,999,1106,.15437E-3,.3346E-4,0
